[{"OBJECT_NAME":"OBJECT S","OBJECT_ID":"2024-199S","EPOCH":"2026-03-09T22:22:49.887840","MEAN_MOTION":15.3495177,"ECCENTRICITY":0.00086914,"INCLINATION":97.3152,"RA_OF_ASC_NODE":299.1504,"ARG_OF_PERICENTER":310.0662,"MEAN_ANOMALY":49.9819,"EPHEMERIS_TYPE":0,"CLASSIFICATION_TYPE":"U","NORAD_CAT_ID":61751,"ELEMENT_SET_NO":999,"REV_AT_EPOCH":12190,"BSTAR":0.00036395153,"MEAN_MOTION_DOT":0.00012279,"MEAN_MOTION_DDOT":0},{"OBJECT_NAME":"STARLINK-35623","OBJECT_ID":"2025-237AA","EPOCH":"2026-03-09T05:04:24.841632","MEAN_MOTION":15.3019046,"ECCENTRICITY":0.0001058,"INCLINATION":53.1591,"RA_OF_ASC_NODE":42.1028,"ARG_OF_PERICENTER":90.3957,"MEAN_ANOMALY":269.7165,"EPHEMERIS_TYPE":0,"CLASSIFICATION_TYPE":"U","NORAD_CAT_ID":66138,"ELEMENT_SET_NO":999,"REV_AT_EPOCH":2253,"BSTAR":0.0013411717,"MEAN_MOTION_DOT":0.00039562,"MEAN_MOTION_DDOT":0}]
